ONEWEB-0283             
1 49001U 21060AL  25209.56628245  .00000030  00000+0  45382-4 0  9997
2 49001  87.9044 293.2938 0002217  95.2895 264.8489 13.16596242197034
ONEWEB-0284             
1 49002U 21060AM  25209.25596267  .00000057  00000+0  11554-3 0  9994
2 49002  87.9062 293.3294 0001708  94.1223 266.0103 13.16595947196978
ONEWEB-0285             
1 49075U 21075A   25209.58602476  .00001854  00000+0  51189-2 0  9999
2 49075  87.8845  54.9954 0001676  82.7375 277.3944 13.12435415192765
ONEWEB-0286             
1 49076U 21075B   25209.56788602  .00000397  00000+0  10674-2 0  9999
2 49076  87.8869  55.0261 0001670  90.0618 270.0702 13.12442047192111
ONEWEB-0287             
1 49077U 21075C   25209.60264805  .00000033  00000+0  52837-4 0  9995
2 49077  87.9046  70.2673 0001413  92.9304 267.1989 13.17650340191018
ONEWEB-0288             
1 49078U 21075D   25209.61993137  .00000161  00000+0  41244-3 0  9995
2 49078  87.8853  54.9816 0001615  83.6581 276.4732 13.12443658192747
ONEWEB-0289             
1 49079U 21075E   25209.63513800  .00000040  00000+0  71171-4 0  9992
2 49079  87.9030  70.2907 0001638  65.9876 294.1427 13.17098629191592
ONEWEB-0290             
1 49080U 21075F   25209.61444052  .00000072  00000+0  15199-3 0  9996
2 49080  87.9034  70.2485 0001916  62.8849 297.2477 13.17650676191005
